New Tokyo Inter-National Airport, Japan (RJAA) 35-46N 140-23E 44MAug 31, 2018 - 05:30 AM EDT / 2018.08.31 0930 UTCWind: from the ENE (070 degrees) at 7 MPH (6 KT) (direction variable):0Visibility: greater than 7 mile(s):0Sky conditions: mostly cloudyWeather: rain with thunder; mist; Cumulonimbus clouds observedTemperature: 75 F (24 C)Dew Point: 71 F (22 C)Relative Humidity: 88%Pressure (altimeter): 29.77 in. Hg (1008 hPa)ob: RJAA 310930Z 07006KT 030V110 9999 FEW004 FEW030CB BKN040 24/22 Q1008 BECMG 04006KT TEMPO FM1000 3000 TSRA BR FEW008 BKN012 FEW015CB RMK 1ST004 1CB030 7CU040 A2979 LIGHTNING 30KM NW-N AND E MOV Ecycle: 9