Kansai International Airport, Japan (RJBB) 34-25N 135-15E 8MSep 04, 2018 - 12:30 AM EDT / 2018.09.04 0430 UTCWind: from the S (190 degrees) at 92 MPH (80 KT) gusting to 114 MPH (99 KT) (direction variable):1Visibility: less than 1 mile:0Sky conditions: mostly cloudyWeather: heavy rain showers; fog; Cumulonimbus clouds observedTemperature: 77 F (25 C)Dew Point: 77 F (25 C)Relative Humidity: 100%Pressure (altimeter): 28.23 in. Hg (0956 hPa)ob: RJBB 040430Z 19080G99KT 0500 R24L/0175V0550D R24R/1400VP2000D +SHRA FG FEW003 SCT008 BKN020CB 25/25 Q0956 NOSIGcycle: 4