Tokyo International Airport, Japan (RJTT) 35-33N 139-47E 8MAug 29, 2018 - 11:47 PM EDT / 2018.08.30 0347 UTCWind: from the S (190 degrees) at 22 MPH (19 KT) gusting to 33 MPH (29 KT):0Visibility: greater than 7 mile(s):0Sky conditions: mostly cloudyTemperature: 91 F (33 C)Heat index: 99.1 F (37.3 C):1Dew Point: 73 F (23 C)Relative Humidity: 55%Pressure (altimeter): 29.83 in. Hg (1010 hPa)ob: RJTT 300347Z 19019G29KT 9999 FEW030 BKN/// 33/23 Q1010 RMK 1CU030 A2983cycle: 4