Tokyo International Airport, Japan (RJTT) 35-33N 139-47E 8MAug 31, 2018 - 05:00 AM EDT / 2018.08.31 0900 UTCWind: from the NNE (030 degrees) at 21 MPH (18 KT):0Visibility: greater than 7 mile(s):0Sky conditions: mostly cloudyWeather: Cumulonimbus clouds observedTemperature: 82 F (28 C)Dew Point: 71 F (22 C)Relative Humidity: 69%Pressure (altimeter): 29.74 in. Hg (1007 hPa)ob: RJTT 310900Z 03018KT 9999 FEW030 FEW035CB BKN040 BKN/// 28/22 Q1007 NOSIG RMK 1CU030 1CB035 6CU040 A2974 LIGHTNING 40KM N MOV E CB W-NWcycle: 9