2018/08/31 09:30RJAA 310930Z 07006KT 030V110 9999 FEW004 FEW030CB BKN040 24/22 Q1008 BECMG 04006KT TEMPO FM1000 3000 TSRA BR FEW008 BKN012 FEW015CB RMK 1ST004 1CB030 7CU040 A2979 LIGHTNING 30KM NW-N AND E MOV E