2018/09/04 04:30RJBB 040430Z 19080G99KT 0500 R24L/0175V0550D R24R/1400VP2000D +SHRA FG FEW003 SCT008 BKN020CB 25/25 Q0956 NOSIG