2018/09/04 07:02RJTT 040702Z 18030G43KT 9999 FEW008 BKN/// 29/25 Q1000 RMK 1ST008 A2954