2018/08/30 03:47RJTT 300347Z 19019G29KT 9999 FEW030 BKN/// 33/23 Q1010 RMK 1CU030 A2983