2018/08/31 09:00RJTT 310900Z 03018KT 9999 FEW030 FEW035CB BKN040 BKN/// 28/22 Q1007 NOSIG RMK 1CU030 1CB035 6CU040 A2974 LIGHTNING 40KM N MOV E CB W-NW